CCSDS_OMM_VERS = 2.0
CREATION_DATE  = 
ORIGINATOR     = 

OBJECT_NAME    = GUOWANG GROUP 20 OBJECT E
OBJECT_ID      = 2026-047E
CENTER_NAME    = EARTH
REF_FRAME      = TEME
TIME_SYSTEM    = UTC
MEAN_ELEMENT_THEORY = SGP/SGP4

EPOCH          = 2026-03-17T01:32:12.575616
MEAN_MOTION    = 14.05931996
ECCENTRICITY   = .00068308
INCLINATION    = 50.0041
RA_OF_ASC_NODE = 40.3867
ARG_OF_PERICENTER = 274.9069
MEAN_ANOMALY   = 85.1056

EPHEMERIS_TYPE = 0
CLASSIFICATION_TYPE = U
NORAD_CAT_ID   = 68133
ELEMENT_SET_NO = 999
REV_AT_EPOCH   = 60
BSTAR          = .463008E-5
MEAN_MOTION_DOT = -.145E-5
MEAN_MOTION_DDOT = 0

CCSDS_OMM_VERS = 2.0
CREATION_DATE  = 
ORIGINATOR     = 

OBJECT_NAME    = GUOWANG GROUP 20 OBJECT F
OBJECT_ID      = 2026-047F
CENTER_NAME    = EARTH
REF_FRAME      = TEME
TIME_SYSTEM    = UTC
MEAN_ELEMENT_THEORY = SGP/SGP4

EPOCH          = 2026-03-19T23:27:41.427648
MEAN_MOTION    = 14.06079851
ECCENTRICITY   = .0006391
INCLINATION    = 50.0091
RA_OF_ASC_NODE = 28.4795
ARG_OF_PERICENTER = 289.3722
MEAN_ANOMALY   = 70.6492

EPHEMERIS_TYPE = 0
CLASSIFICATION_TYPE = U
NORAD_CAT_ID   = 68134
ELEMENT_SET_NO = 999
REV_AT_EPOCH   = 100
BSTAR          = .20813E-5
MEAN_MOTION_DOT = -.149E-5
MEAN_MOTION_DDOT = 0

CCSDS_OMM_VERS = 2.0
CREATION_DATE  = 
ORIGINATOR     = 

OBJECT_NAME    = GUOWANG GROUP 20 OBJECT G
OBJECT_ID      = 2026-047G
CENTER_NAME    = EARTH
REF_FRAME      = TEME
TIME_SYSTEM    = UTC
MEAN_ELEMENT_THEORY = SGP/SGP4

EPOCH          = 2026-03-22T06:06:15.105600
MEAN_MOTION    = 14.03854153
ECCENTRICITY   = .00015462
INCLINATION    = 50.0100
RA_OF_ASC_NODE = 19.1976
ARG_OF_PERICENTER = 289.1589
MEAN_ANOMALY   = 70.9148

EPHEMERIS_TYPE = 0
CLASSIFICATION_TYPE = U
NORAD_CAT_ID   = 68135
ELEMENT_SET_NO = 999
REV_AT_EPOCH   = 133
BSTAR          = .1151048E-3
MEAN_MOTION_DOT = .31E-6
MEAN_MOTION_DDOT = 0

CCSDS_OMM_VERS = 2.0
CREATION_DATE  = 
ORIGINATOR     = 

OBJECT_NAME    = GUOWANG GROUP 20 OBJECT H
OBJECT_ID      = 2026-047H
CENTER_NAME    = EARTH
REF_FRAME      = TEME
TIME_SYSTEM    = UTC
MEAN_ELEMENT_THEORY = SGP/SGP4

EPOCH          = 2026-03-20T19:56:00.151584
MEAN_MOTION    = 14.05754608
ECCENTRICITY   = .00095465
INCLINATION    = 50.0016
RA_OF_ASC_NODE = 24.9935
ARG_OF_PERICENTER = 285.3143
MEAN_ANOMALY   = 74.6707

EPHEMERIS_TYPE = 0
CLASSIFICATION_TYPE = U
NORAD_CAT_ID   = 68136
ELEMENT_SET_NO = 999
REV_AT_EPOCH   = 112
BSTAR          = .4305167E-5
MEAN_MOTION_DOT = -.145E-5
MEAN_MOTION_DDOT = 0

CCSDS_OMM_VERS = 2.0
CREATION_DATE  = 
ORIGINATOR     = 

OBJECT_NAME    = GUOWANG GROUP 20 OBJECT J
OBJECT_ID      = 2026-047J
CENTER_NAME    = EARTH
REF_FRAME      = TEME
TIME_SYSTEM    = UTC
MEAN_ELEMENT_THEORY = SGP/SGP4

EPOCH          = 2026-03-18T23:33:39.242880
MEAN_MOTION    = 14.06269806
ECCENTRICITY   = .00059129
INCLINATION    = 50.0089
RA_OF_ASC_NODE = 32.5436
ARG_OF_PERICENTER = 296.0035
MEAN_ANOMALY   = 64.0262

EPHEMERIS_TYPE = 0
CLASSIFICATION_TYPE = U
NORAD_CAT_ID   = 68137
ELEMENT_SET_NO = 999
REV_AT_EPOCH   = 87
BSTAR          = .4840452E-5
MEAN_MOTION_DOT = -.144E-5
MEAN_MOTION_DDOT = 0

CCSDS_OMM_VERS = 2.0
CREATION_DATE  = 
ORIGINATOR     = 

OBJECT_NAME    = CZ-8A R/B
OBJECT_ID      = 2026-047K
CENTER_NAME    = EARTH
REF_FRAME      = TEME
TIME_SYSTEM    = UTC
MEAN_ELEMENT_THEORY = SGP/SGP4

EPOCH          = 2026-03-22T06:46:25.879008
MEAN_MOTION    = 14.12229883
ECCENTRICITY   = .00447712
INCLINATION    = 49.9538
RA_OF_ASC_NODE = 18.5986
ARG_OF_PERICENTER = 181.6178
MEAN_ANOMALY   = 178.4591

EPHEMERIS_TYPE = 0
CLASSIFICATION_TYPE = U
NORAD_CAT_ID   = 68138
ELEMENT_SET_NO = 999
REV_AT_EPOCH   = 133
BSTAR          = .13636775E-3
MEAN_MOTION_DOT = .1E-5
MEAN_MOTION_DDOT = 0

CCSDS_OMM_VERS = 2.0
CREATION_DATE  = 
ORIGINATOR     = 

OBJECT_NAME    = SHIYAN-30 03
OBJECT_ID      = 2026-048A
CENTER_NAME    = EARTH
REF_FRAME      = TEME
TIME_SYSTEM    = UTC
MEAN_ELEMENT_THEORY = SGP/SGP4

EPOCH          = 2026-03-22T14:56:36.629952
MEAN_MOTION    = 14.91690455
ECCENTRICITY   = .0003873
INCLINATION    = 35.0002
RA_OF_ASC_NODE = 66.5405
ARG_OF_PERICENTER = 309.8018
MEAN_ANOMALY   = 50.2346

EPHEMERIS_TYPE = 0
CLASSIFICATION_TYPE = U
NORAD_CAT_ID   = 68139
ELEMENT_SET_NO = 999
REV_AT_EPOCH   = 143
BSTAR          = .266E-3
MEAN_MOTION_DOT = .27E-4
MEAN_MOTION_DDOT = 0

CCSDS_OMM_VERS = 2.0
CREATION_DATE  = 
ORIGINATOR     = 

OBJECT_NAME    = SHIYAN-30 04
OBJECT_ID      = 2026-048B
CENTER_NAME    = EARTH
REF_FRAME      = TEME
TIME_SYSTEM    = UTC
MEAN_ELEMENT_THEORY = SGP/SGP4

EPOCH          = 2026-03-22T14:57:41.785056
MEAN_MOTION    = 14.91700477
ECCENTRICITY   = .0002376
INCLINATION    = 34.9917
RA_OF_ASC_NODE = 66.5463
ARG_OF_PERICENTER = 309.5489
MEAN_ANOMALY   = 50.5005

EPHEMERIS_TYPE = 0
CLASSIFICATION_TYPE = U
NORAD_CAT_ID   = 68140
ELEMENT_SET_NO = 999
REV_AT_EPOCH   = 143
BSTAR          = .25652E-3
MEAN_MOTION_DOT = .2603E-4
MEAN_MOTION_DDOT = 0

CCSDS_OMM_VERS = 2.0
CREATION_DATE  = 
ORIGINATOR     = 

OBJECT_NAME    = CZ-2D R/B
OBJECT_ID      = 2026-048C
CENTER_NAME    = EARTH
REF_FRAME      = TEME
TIME_SYSTEM    = UTC
MEAN_ELEMENT_THEORY = SGP/SGP4

EPOCH          = 2026-03-22T06:24:42.637824
MEAN_MOTION    = 14.95539275
ECCENTRICITY   = .00149164
INCLINATION    = 35.1297
RA_OF_ASC_NODE = 68.6308
ARG_OF_PERICENTER = 74.9842
MEAN_ANOMALY   = 285.2516

EPHEMERIS_TYPE = 0
CLASSIFICATION_TYPE = U
NORAD_CAT_ID   = 68141
ELEMENT_SET_NO = 999
REV_AT_EPOCH   = 138
BSTAR          = .14405685E-3
MEAN_MOTION_DOT = .1599E-4
MEAN_MOTION_DDOT = 0

CCSDS_OMM_VERS = 2.0
CREATION_DATE  = 
ORIGINATOR     = 

OBJECT_NAME    = STARLINK-36604
OBJECT_ID      = 2026-049A
CENTER_NAME    = EARTH
REF_FRAME      = TEME
TIME_SYSTEM    = UTC
MEAN_ELEMENT_THEORY = SGP/SGP4

EPOCH          = 2026-03-19T13:52:52.185792
MEAN_MOTION    = 16.01563866
ECCENTRICITY   = .00005554
INCLINATION    = 97.2797
RA_OF_ASC_NODE = 98.1391
ARG_OF_PERICENTER = 65.4234
MEAN_ANOMALY   = 294.7104

EPHEMERIS_TYPE = 0
CLASSIFICATION_TYPE = U
NORAD_CAT_ID   = 68142
ELEMENT_SET_NO = 999
REV_AT_EPOCH   = 96
BSTAR          = -.10855232E-2
MEAN_MOTION_DOT = -.601426E-2
MEAN_MOTION_DDOT = .12953804E-3

CCSDS_OMM_VERS = 2.0
CREATION_DATE  = 
ORIGINATOR     = 

OBJECT_NAME    = STARLINK-36995
OBJECT_ID      = 2026-049B
CENTER_NAME    = EARTH
REF_FRAME      = TEME
TIME_SYSTEM    = UTC
MEAN_ELEMENT_THEORY = SGP/SGP4

EPOCH          = 2026-03-19T06:22:43.389408
MEAN_MOTION    = 16.02629136
ECCENTRICITY   = .0000959
INCLINATION    = 97.2800
RA_OF_ASC_NODE = 97.7985
ARG_OF_PERICENTER = 13.3742
MEAN_ANOMALY   = 346.7563

EPHEMERIS_TYPE = 0
CLASSIFICATION_TYPE = U
NORAD_CAT_ID   = 68143
ELEMENT_SET_NO = 999
REV_AT_EPOCH   = 91
BSTAR          = -.90105E-3
MEAN_MOTION_DOT = -.531426E-2
MEAN_MOTION_DDOT = .10413E-3

CCSDS_OMM_VERS = 2.0
CREATION_DATE  = 
ORIGINATOR     = 

OBJECT_NAME    = STARLINK-37020
OBJECT_ID      = 2026-049C
CENTER_NAME    = EARTH
REF_FRAME      = TEME
TIME_SYSTEM    = UTC
MEAN_ELEMENT_THEORY = SGP/SGP4

EPOCH          = 2026-03-19T12:20:37.301568
MEAN_MOTION    = 16.04472428
ECCENTRICITY   = .00004674
INCLINATION    = 97.2794
RA_OF_ASC_NODE = 98.0724
ARG_OF_PERICENTER = 166.1555
MEAN_ANOMALY   = 193.9739

EPHEMERIS_TYPE = 0
CLASSIFICATION_TYPE = U
NORAD_CAT_ID   = 68144
ELEMENT_SET_NO = 999
REV_AT_EPOCH   = 95
BSTAR          = .15013758E-2
MEAN_MOTION_DOT = .978873E-2
MEAN_MOTION_DDOT = .50884471E-3

